0 ARIANE 2 DEB
1 27595U 88040E   13282.20863991  .00000014  00000-0  55749-3 0  8146
2 27595 007.7821 015.1578 7173166 109.5956 344.7220 02.28446886 93527
0 ARIANE 2 DEB
1 27595U 88040E   13283.51022850 -.00000091  00000-0  00000+0 0  8166
2 27595 007.7808 014.6717 7174371 110.5812 335.1482 02.28448065 93551
0 ARIANE 2 DEB
1 27595U 88040E   13287.29046574  .00000027  00000-0  25430-3 0  8160
2 27595 007.7814 013.2512 7172359 113.4034 204.0362 02.28448264 93640
0 ARIANE 2 DEB
1 27595U 88040E   13290.43481309 -.00000050  00000-0 -13788-3 0  8171
2 27595 007.7808 012.0684 7172016 115.7597 269.9731 02.28449210 93719
0 ARIANE 2 DEB
1 27595U 88040E   13292.74532770 -.00000144  00000-0 -42278-3 0  8187
2 27595 007.7804 011.1983 7171776 117.4923 010.1642 02.28449610 93767
0 ARIANE 2 DEB
1 27595U 88040E   13295.35119154 -.00000200  00000-0 -61788-3 0  8195
2 27595 007.7798 010.2177 7171495 119.4449 353.2564 02.28449667 93820
